{"spkid": "50441137", "covariance": {"epoch": "2456029.5", "data": [["1.547357455098834E-14", "-3.610715463053146E-14", "5.151713592343788E-12", "3.251358310779083E-12", "7.064273641461208E-13", "-3.347809869125904E-12"], ["-3.610715463053146E-14", "8.425641810561062E-14", "-1.202894635786926E-11", "-7.602372426433168E-12", "-1.637723456390338E-12", "7.813900647641402E-12"], ["5.151713592343788E-12", "-1.202894635786926E-11", "1.796898732851658E-9", "1.197690852103133E-9", "1.679798091062449E-10", "-1.143887140360575E-9"], ["3.251358310779083E-12", "-7.602372426433168E-12", "1.197690852103133E-9", "1.600038371553735E-9", "-7.086253903308887E-10", "-7.102320275319287E-10"], ["7.064273641461208E-13", "-1.637723456390338E-12", "1.679798091062449E-10", "-7.086253903308887E-10", "8.618297310828139E-10", "-1.679316320533593E-10"], ["-3.347809869125904E-12", "7.813900647641402E-12", "-1.143887140360575E-9", "-7.102320275319287E-10", "-1.679316320533593E-10", "8.496244563034959E-10"]], "elements": [{"label": "e", "units": null, "title": "eccentricity", "value": ".7821441653600513", "sigma": 1.24392823550992e-07, "name": "e"}, {"label": "q", "units": "au", "value": ".5158508300876105", "title": "perihelion distance", "name": "q", "sigma": 2.9026956110762e-07}, {"name": "tp", "sigma": 4.23898423310545e-05, "title": "time of perihelion passage", "value": "2456190.490983606275", "units": "TDB", "label": "tp"}, {"label": "node", "value": "259.8481453443", "title": "longitude of the ascending node", "units": "deg", "name": "om", "sigma": 4.0000479641546e-05}, {"label": "peri", "title": "argument of perihelion", "value": "276.1473500172224", "units": "deg", "name": "w", "sigma": 2.9356936677433e-05}, {"title": "inclination", "value": "4.996137125960653", "units": "deg", "sigma": 2.91483182414268e-05, "name": "i", "label": "i"}], "labels": ["e", "q", "tp", "node", "peri", "i"]}, "elements": [{"label": "e", "sigma": "1.231E-7", "name": "e", "value": ".7869304913909688", "title": "eccentricity", "units": null}, {"title": "semi-major axis", "value": "2.356557736374967", "units": "au", "sigma": "2.4216E-8", "name": "a", "label": "a"}, {"name": "q", "sigma": "2.8499E-7", "units": "au", "title": "perihelion distance", "value": ".5021105988982251", "label": "q"}, {"label": "i", "name": "i", "sigma": "2.9387E-5", "units": "deg", "value": "5.046762497167895", "title": "inclination; angle with respect to x-y ecliptic plane"}, {"label": "node", "units": "deg", "value": "257.50696884", "title": "longitude of the ascending node", "sigma": "3.9379E-5", "name": "om"}, {"units": "deg", "title": "argument of perihelion", "value": "278.6228908781174", "name": "w", "sigma": "2.9859E-5", "label": "peri"}, {"label": "M", "title": "mean anomaly", "value": "277.5277707116576", "units": "deg", "name": "ma", "sigma": "3.0223E-5"}, {"label": "tp", "sigma": ".00011556", "name": "tp", "units": "TDB", "value": "2461503.205831125666", "title": "time of perihelion passage"}, {"value": "1321.342955629834", "title": "sidereal orbital period", "units": "d", "sigma": "2.0367E-5", "name": "per", "label": "period"}, {"label": "n", "title": "mean motion", "value": ".2724500845644586", "units": "deg/d", "sigma": "4.1995E-9", "name": "n"}, {"label": "Q", "name": "ad", "sigma": "4.3272E-8", "units": "au", "title": "aphelion distance", "value": "4.211004873851709"}], "epoch": "2461200.5"}